{"fetched_at":"2026-07-17T17:38:36.530Z","source":"https://celestrak.org/NORAD/elements/gp.php?NAME=SPACEMOBILE&FORMAT=JSON","constellation":"ast-spacemobile","records":[{"OBJECT_NAME":"SPACEMOBILE-003","OBJECT_ID":"2024-163A","EPOCH":"2026-07-17T07:35:40.667424","CLASSIFICATION_TYPE":"U","MEAN_MOTION":15.20711173,"ECCENTRICITY":0.00045565,"INCLINATION":52.9669,"RA_OF_ASC_NODE":170.8888,"ARG_OF_PERICENTER":200.3744,"MEAN_ANOMALY":159.7069,"EPHEMERIS_TYPE":0,"NORAD_CAT_ID":61045,"ELEMENT_SET_NO":999,"REV_AT_EPOCH":10235,"BSTAR":0.000067586399,"MEAN_MOTION_DOT":0.00001179,"MEAN_MOTION_DDOT":0},{"OBJECT_NAME":"SPACEMOBILE-005","OBJECT_ID":"2024-163B","EPOCH":"2026-07-17T05:37:10.705152","CLASSIFICATION_TYPE":"U","MEAN_MOTION":15.20722463,"ECCENTRICITY":0.00086004,"INCLINATION":52.9761,"RA_OF_ASC_NODE":171.2183,"ARG_OF_PERICENTER":201.8566,"MEAN_ANOMALY":158.2063,"EPHEMERIS_TYPE":0,"NORAD_CAT_ID":61046,"ELEMENT_SET_NO":999,"REV_AT_EPOCH":10233,"BSTAR":0.00011477895,"MEAN_MOTION_DOT":0.00002231,"MEAN_MOTION_DDOT":0},{"OBJECT_NAME":"SPACEMOBILE-001","OBJECT_ID":"2024-163C","EPOCH":"2026-07-17T00:50:50.309664","CLASSIFICATION_TYPE":"U","MEAN_MOTION":15.2074346,"ECCENTRICITY":0.00070937,"INCLINATION":52.9725,"RA_OF_ASC_NODE":171.8417,"ARG_OF_PERICENTER":199.2363,"MEAN_ANOMALY":160.8365,"EPHEMERIS_TYPE":0,"NORAD_CAT_ID":61047,"ELEMENT_SET_NO":999,"REV_AT_EPOCH":10230,"BSTAR":0.000021220399,"MEAN_MOTION_DOT":0.00000145,"MEAN_MOTION_DDOT":0},{"OBJECT_NAME":"SPACEMOBILE-002","OBJECT_ID":"2024-163D","EPOCH":"2026-07-17T05:11:29.455296","CLASSIFICATION_TYPE":"U","MEAN_MOTION":15.2073653,"ECCENTRICITY":0.00056511,"INCLINATION":52.9783,"RA_OF_ASC_NODE":171.0502,"ARG_OF_PERICENTER":199.514,"MEAN_ANOMALY":160.5639,"EPHEMERIS_TYPE":0,"NORAD_CAT_ID":61048,"ELEMENT_SET_NO":999,"REV_AT_EPOCH":10233,"BSTAR":-0.0003575183,"MEAN_MOTION_DOT":-0.00008289,"MEAN_MOTION_DDOT":0},{"OBJECT_NAME":"SPACEMOBILE-004","OBJECT_ID":"2024-163E","EPOCH":"2026-07-16T08:16:06.262752","CLASSIFICATION_TYPE":"U","MEAN_MOTION":15.20779499,"ECCENTRICITY":0.0005984,"INCLINATION":52.9692,"RA_OF_ASC_NODE":174.8353,"ARG_OF_PERICENTER":230.9141,"MEAN_ANOMALY":129.1322,"EPHEMERIS_TYPE":0,"NORAD_CAT_ID":61049,"ELEMENT_SET_NO":999,"REV_AT_EPOCH":10220,"BSTAR":0.00056003078,"MEAN_MOTION_DOT":0.00012194,"MEAN_MOTION_DDOT":0},{"OBJECT_NAME":"SPACEMOBILE-006","OBJECT_ID":"2025-309A","EPOCH":"2026-07-16T09:29:27.795840","CLASSIFICATION_TYPE":"U","MEAN_MOTION":15.18656625,"ECCENTRICITY":0.0009991,"INCLINATION":52.9935,"RA_OF_ASC_NODE":197.8358,"ARG_OF_PERICENTER":219.1469,"MEAN_ANOMALY":140.8802,"EPHEMERIS_TYPE":0,"NORAD_CAT_ID":67232,"ELEMENT_SET_NO":999,"REV_AT_EPOCH":3103,"BSTAR":0.000058828,"MEAN_MOTION_DOT":0.00000913,"MEAN_MOTION_DDOT":0},{"OBJECT_NAME":"SPACEMOBILE-008","OBJECT_ID":"2026-139A","EPOCH":"2026-07-17T04:49:14.783520","CLASSIFICATION_TYPE":"U","MEAN_MOTION":15.12803619,"ECCENTRICITY":0.00051374,"INCLINATION":52.995,"RA_OF_ASC_NODE":126.3014,"ARG_OF_PERICENTER":61.2203,"MEAN_ANOMALY":298.9303,"EPHEMERIS_TYPE":0,"NORAD_CAT_ID":69589,"ELEMENT_SET_NO":999,"REV_AT_EPOCH":452,"BSTAR":0.000032352775,"MEAN_MOTION_DOT":0.00000273,"MEAN_MOTION_DDOT":0},{"OBJECT_NAME":"SPACEMOBILE-009","OBJECT_ID":"2026-139B","EPOCH":"2026-07-17T04:52:16.568256","CLASSIFICATION_TYPE":"U","MEAN_MOTION":15.12696995,"ECCENTRICITY":0.0005408,"INCLINATION":52.9941,"RA_OF_ASC_NODE":126.3087,"ARG_OF_PERICENTER":57.284,"MEAN_ANOMALY":302.8672,"EPHEMERIS_TYPE":0,"NORAD_CAT_ID":69590,"ELEMENT_SET_NO":999,"REV_AT_EPOCH":452,"BSTAR":0.000033869431,"MEAN_MOTION_DOT":0.00000298,"MEAN_MOTION_DDOT":0},{"OBJECT_NAME":"SPACEMOBILE-010","OBJECT_ID":"2026-139C","EPOCH":"2026-07-17T04:57:04.562784","CLASSIFICATION_TYPE":"U","MEAN_MOTION":15.12530958,"ECCENTRICITY":0.00053327,"INCLINATION":52.9948,"RA_OF_ASC_NODE":126.3326,"ARG_OF_PERICENTER":49.3144,"MEAN_ANOMALY":310.8309,"EPHEMERIS_TYPE":0,"NORAD_CAT_ID":69591,"ELEMENT_SET_NO":999,"REV_AT_EPOCH":453,"BSTAR":0.000046400419,"MEAN_MOTION_DOT":0.00000517,"MEAN_MOTION_DDOT":0}]}
